OBJECT_NAME,OBJECT_ID,EPOCH,MEAN_MOTION,ECCENTRICITY,INCLINATION,RA_OF_ASC_NODE,ARG_OF_PERICENTER,MEAN_ANOMALY,EPHEMERIS_TYPE,CLASSIFICATION_TYPE,NORAD_CAT_ID,ELEMENT_SET_NO,REV_AT_EPOCH,BSTAR,MEAN_MOTION_DOT,MEAN_MOTION_DDOT
DUBAISAT-1,2009-041B,2026-07-16T07:46:46.142688,14.75167541,.00098513,98.0086,330.2687,344.8442,15.2471,0,U,35682,999,90939,.61217E-4,.363E-5,0
OCEANSAT-2,2009-051A,2026-07-16T13:55:41.104704,13.99655944,.00174344,98.2321,181.4972,149.5033,210.7152,0,U,35931,999,88344,-.10852986E-4,-.53E-6,0
WORLDVIEW-2 (WV-2),2009-055A,2026-07-16T14:22:00.705792,14.37907139,.00053704,98.4756,270.6478,126.4703,233.6980,0,U,35946,999,87987,.2664688E-4,.37E-6,0
SMOS,2009-059A,2026-07-16T12:24:16.246080,14.39736468,.00011643,98.4429,24.4220,97.4594,262.6727,0,U,36036,999,87767,.49665992E-4,.112E-5,0
YAOGAN-7,2009-069A,2026-07-16T06:24:24.914592,14.78036020,.00234437,98.0031,82.9494,307.7241,52.1845,0,U,36110,999,89392,.3277084E-4,.184E-5,0
TANDEM-X,2010-030A,2026-07-07T11:29:58.986816,15.19154052,.0001887,97.4457,195.8973,94.3019,265.8431,0,U,36605,999,88972,.21566E-4,.386E-5,0
CARTOSAT-2B,2010-035A,2026-07-16T13:45:51.956064,14.78653335,.00127343,97.9937,247.9326,95.7902,264.4761,0,U,36795,999,86419,.1019035E-3,.695E-5,0
YAOGAN-10,2010-038A,2026-07-16T16:03:18.444672,14.85433385,.00016885,97.8965,220.8384,80.8998,58.7456,0,U,36834,999,86158,.12110352E-3,.99E-5,0
COSMO-SKYMED 4,2010-060A,2026-07-16T14:35:57.552000,14.82150952,.0001517,97.8887,20.7821,87.4849,272.6538,0,U,37216,999,84892,.89955585E-4,.664E-5,0
RESOURCESAT-2,2011-015A,2026-07-16T13:54:22.251744,14.21599715,.00116326,98.7632,264.8160,167.2076,192.9398,0,U,37387,999,79035,.29957894E-4,.21E-6,0
HAIYANG-2A,2011-043A,2026-07-16T14:31:32.369664,13.73205578,.00021603,99.3394,199.6066,26.5262,333.5997,0,U,37781,999,75069,.14466751E-3,.91E-6,0
RASAT,2011-044D,2026-07-16T15:10:25.548096,14.68193426,.00219514,98.0588,288.5803,98.4414,31.4550,0,U,37791,999,79750,.46058413E-4,.217E-5,0
SRMSAT,2011-058D,2026-07-16T12:02:44.649024,14.11581255,.00117137,19.9708,242.0370,165.5426,335.9764,0,U,37841,999,76196,.34086401E-4,.328E-5,0
PLEIADES 1A,2011-076F,2026-07-16T15:26:24.203616,14.58548167,.00016654,98.1973,272.3490,78.2520,81.9508,0,U,38012,999,77628,.86498277E-4,.356E-5,0
ZIYUAN 1-02C (ZY 1-02C),2011-079A,2026-07-16T15:53:35.219616,14.38237539,.00056501,98.4062,264.3531,209.9404,311.6099,0,U,38038,999,76344,.17776941E-3,.497E-5,0
ARIRANG-3 (KOMPSAT-3),2012-025B,2026-07-16T14:16:01.319808,14.62229660,.00061427,98.1186,154.5501,35.1378,325.0228,0,U,38338,999,75564,.44440484E-4,.177E-5,0
EXACTVIEW-1 (ADS-1B),2012-039C,2026-07-16T07:26:25.103328,14.24992352,.00119509,98.9806,315.3619,88.6178,271.6370,0,U,38709,999,72685,.33445511E-4,.32E-6,0
SPOT 6,2012-047A,2026-07-16T15:04:37.598016,14.58539739,.00011252,98.2110,264.5905,86.0230,274.1098,0,U,38755,999,73734,.5604956E-4,.215E-5,0
PLEIADES 1B,2012-068A,2026-07-16T15:31:24.683808,14.58535351,.00015756,98.1944,272.2913,78.2434,281.8942,0,U,39019,999,72514,.65307479E-4,.258E-5,0
GOKTURK 2,2012-073A,2026-07-16T13:54:00.764928,14.75569467,.00009533,97.6804,33.5359,98.8950,261.2368,0,U,39030,999,72884,.61934021E-4,.375E-5,0
LANDSAT 8,2013-008A,2026-07-16T14:54:54.397152,14.57094776,.00013654,98.2290,267.4052,91.3377,268.7978,0,U,39084,999,70218,.42740088E-4,.147E-5,0
SARAL,2013-009A,2026-07-16T13:53:36.630816,14.32896024,.00017769,98.5556,23.7745,163.2515,196.8729,0,U,39086,999,69981,.24349801E-4,.23E-6,0
GAOFEN-1,2013-018A,2026-07-16T14:38:02.514912,14.76519136,.00171691,97.9088,269.0779,166.6119,193.5550,0,U,39150,999,71258,.25945601E-4,.13E-5,0
VNREDSAT 1,2013-021B,2026-07-16T14:20:12.873408,14.64886281,.00015858,97.9064,249.8827,79.6279,280.5104,0,U,39160,999,70459,.13910469E-3,.698E-5,0
ARIRANG-5 (KOMPSAT-5),2013-042A,2026-07-16T15:06:05.787360,15.04495571,.00052661,97.6202,23.9160,54.2553,305.9162,0,U,39227,999,70828,.14186434E-4,.138E-5,0
SKYSAT-A,2013-066C,2026-07-16T13:18:31.262400,15.13119501,.00205935,97.3802,246.0159,208.4718,151.5390,0,U,39418,999,69292,.87471709E-4,.1492E-4,0
DUBAISAT-2,2013-066D,2026-07-16T14:53:08.876832,15.10380685,.00092736,97.4577,186.9990,298.0086,62.0205,0,U,39419,999,69083,.10492304E-3,.1661E-4,0
GPM-CORE,2014-009C,2026-07-16T14:23:22.120512,15.45053271,.00109234,64.9691,209.5795,262.5387,97.4512,0,U,39574,999,70235,.74428588E-4,.328E-4,0
SENTINEL-1A,2014-016A,2026-07-16T13:53:37.412736,14.59196172,.00014309,98.1768,204.6827,85.4747,274.6616,0,U,39634,999,65430,.11687267E-4,.9E-7,0
KAZEOSAT 1,2014-024A,2026-07-16T15:34:57.622656,14.42038699,.00012338,98.3200,269.3616,82.9075,277.2255,0,U,39731,999,64280,.11845594E-3,.346E-5,0
