DUBAISAT-1              
1 35682U 09041B   26197.32414517  .00000363  00000+0  61217-4 0  9992
2 35682  98.0086 330.2687 0009851 344.8442  15.2471 14.75167541909399
OCEANSAT-2              
1 35931U 09051A   26197.58033686 -.00000053  00000+0 -10853-4 0  9990
2 35931  98.2321 181.4972 0017434 149.5033 210.7152 13.99655944883444
WORLDVIEW-2 (WV-2)      
1 35946U 09055A   26197.59861928  .00000037  00000+0  26647-4 0  9997
2 35946  98.4756 270.6478 0005370 126.4703 233.6980 14.37907139879874
SMOS                    
1 36036U 09059A   26197.51685470  .00000112  00000+0  49666-4 0  9990
2 36036  98.4429  24.4220 0001164  97.4594 262.6727 14.39736468877678
YAOGAN-7                
1 36110U 09069A   26197.26695503  .00000184  00000+0  32771-4 0  9992
2 36110  98.0031  82.9494 0023443 307.7241  52.1845 14.78036020893927
TANDEM-X                
1 36605U 10030A   26188.47915494  .00000386  00000+0  21566-4 0  9992
2 36605  97.4457 195.8973 0001887  94.3019 265.8431 15.19154052889726
CARTOSAT-2B             
1 36795U 10035A   26197.57351801  .00000695  00000+0  10190-3 0  9997
2 36795  97.9937 247.9326 0012734  95.7902 264.4761 14.78653335864191
YAOGAN-10               
1 36834U 10038A   26197.66896348  .00000990  00000+0  12110-3 0  9996
2 36834  97.8965 220.8384 0001688  80.8998  58.7456 14.85433385861589
COSMO-SKYMED 4          
1 37216U 10060A   26197.60830500  .00000664  00000+0  89956-4 0  9999
2 37216  97.8887  20.7821 0001517  87.4849 272.6538 14.82150952848923
RESOURCESAT-2           
1 37387U 11015A   26197.57942421  .00000021  00000+0  29958-4 0  9994
2 37387  98.7632 264.8160 0011632 167.2076 192.9398 14.21599715790353
HAIYANG-2A              
1 37781U 11043A   26197.60523576  .00000091  00000+0  14467-3 0  9998
2 37781  99.3394 199.6066 0002160  26.5262 333.5997 13.73205578750691
RASAT                   
1 37791U 11044D   26197.63224014  .00000217  00000+0  46058-4 0  9990
2 37791  98.0588 288.5803 0021951  98.4414  31.4550 14.68193426797509
SRMSAT                  
1 37841U 11058D   26197.50190566  .00000328  00000+0  34086-4 0  9992
2 37841  19.9708 242.0370 0011713 165.5426 335.9764 14.11581255761968
PLEIADES 1A             
1 38012U 11076F   26197.64333569  .00000356  00000+0  86498-4 0  9995
2 38012  98.1973 272.3490 0001665  78.2520  81.9508 14.58548167776282
ZIYUAN 1-02C (ZY 1-02C) 
1 38038U 11079A   26197.66221319  .00000497  00000+0  17777-3 0  9996
2 38038  98.4062 264.3531 0005650 209.9404 311.6099 14.38237539763449
ARIRANG-3 (KOMPSAT-3)   
1 38338U 12025B   26197.59445972  .00000177  00000+0  44440-4 0  9999
2 38338  98.1186 154.5501 0006142  35.1378 325.0228 14.62229660755648
EXACTVIEW-1 (ADS-1B)    
1 38709U 12039C   26197.31001277  .00000032  00000+0  33446-4 0  9996
2 38709  98.9806 315.3619 0011950  88.6178 271.6370 14.24992352726856
SPOT 6                  
1 38755U 12047A   26197.62821294  .00000215  00000+0  56050-4 0  9998
2 38755  98.2110 264.5905 0001125  86.0230 274.1098 14.58539739737349
PLEIADES 1B             
1 39019U 12068A   26197.64681347  .00000258  00000+0  65307-4 0  9992
2 39019  98.1944 272.2913 0001575  78.2434 281.8942 14.58535351725144
GOKTURK 2               
1 39030U 12073A   26197.57917552  .00000375  00000+0  61934-4 0  9995
2 39030  97.6804  33.5359 0000953  98.8950 261.2368 14.75569467728846
LANDSAT 8               
1 39084U 13008A   26197.62146293  .00000147  00000+0  42740-4 0  9996
2 39084  98.2290 267.4052 0001365  91.3377 268.7978 14.57094776702182
SARAL                   
1 39086U 13009A   26197.57889619  .00000023  00000+0  24350-4 0  9999
2 39086  98.5556  23.7745 0001776 163.2515 196.8729 14.32896024699812
GAOFEN-1                
1 39150U 13018A   26197.60975133  .00000130  00000+0  25946-4 0  9993
2 39150  97.9088 269.0779 0017169 166.6119 193.5550 14.76519136712589
VNREDSAT 1              
1 39160U 13021B   26197.59737122  .00000698  00000+0  13910-3 0  9996
2 39160  97.9064 249.8827 0001585  79.6279 280.5104 14.64886281704598
ARIRANG-5 (KOMPSAT-5)   
1 39227U 13042A   26197.62923365  .00000138  00000+0  14186-4 0  9999
2 39227  97.6202  23.9160 0005266  54.2553 305.9162 15.04495571708287
SKYSAT-A                
1 39418U 13066C   26197.55452850  .00001492  00000+0  87472-4 0  9997
2 39418  97.3802 246.0159 0020593 208.4718 151.5390 15.13119501692921
DUBAISAT-2              
1 39419U 13066D   26197.62024163  .00001661  00000+0  10492-3 0  9993
2 39419  97.4577 186.9990 0009273 298.0086  62.0205 15.10380685690831
GPM-CORE                
1 39574U 14009C   26197.59956158  .00003280  00000+0  74429-4 0  9997
2 39574  64.9691 209.5795 0010923 262.5387  97.4512 15.45053271702358
SENTINEL-1A             
1 39634U 14016A   26197.57890524  .00000009  00000+0  11687-4 0  9997
2 39634  98.1768 204.6827 0001430  85.4747 274.6616 14.59196172654303
KAZEOSAT 1              
1 39731U 14024A   26197.64927804  .00000346  00000+0  11846-3 0  9994
2 39731  98.3200 269.3616 0001233  82.9075 277.2255 14.42038699642806
